[{"OBJECT_NAME":"FENGYUN 1C DEB","OBJECT_ID":"1999-025AGE","EPOCH":"2026-04-05T00:15:09.295200","MEAN_MOTION":14.17723993,"ECCENTRICITY":0.00651062,"INCLINATION":98.6643,"RA_OF_ASC_NODE":124.8478,"ARG_OF_PERICENTER":161.1526,"MEAN_ANOMALY":259.2218,"EPHEMERIS_TYPE":0,"CLASSIFICATION_TYPE":"U","NORAD_CAT_ID":30467,"ELEMENT_SET_NO":999,"REV_AT_EPOCH":98782,"BSTAR":0.0010959333,"MEAN_MOTION_DOT":2.237e-5,"MEAN_MOTION_DDOT":0},{"OBJECT_NAME":"FENGYUN 1C DEB","OBJECT_ID":"1999-025AGF","EPOCH":"2026-04-05T05:10:06.494880","MEAN_MOTION":14.2161652,"ECCENTRICITY":0.00733722,"INCLINATION":98.9113,"RA_OF_ASC_NODE":182.7983,"ARG_OF_PERICENTER":75.2436,"MEAN_ANOMALY":311.9759,"EPHEMERIS_TYPE":0,"CLASSIFICATION_TYPE":"U","NORAD_CAT_ID":30468,"ELEMENT_SET_NO":999,"REV_AT_EPOCH":98422,"BSTAR":0.0019111763,"MEAN_MOTION_DOT":4.265e-5,"MEAN_MOTION_DDOT":0},{"OBJECT_NAME":"FENGYUN 1C DEB","OBJECT_ID":"1999-025AGG","EPOCH":"2026-04-05T01:56:32.199072","MEAN_MOTION":13.96881271,"ECCENTRICITY":0.01583327,"INCLINATION":98.4733,"RA_OF_ASC_NODE":302.0007,"ARG_OF_PERICENTER":213.0994,"MEAN_ANOMALY":301.1088,"EPHEMERIS_TYPE":0,"CLASSIFICATION_TYPE":"U","NORAD_CAT_ID":30469,"ELEMENT_SET_NO":999,"REV_AT_EPOCH":97288,"BSTAR":0.0011896148,"MEAN_MOTION_DOT":1.801e-5,"MEAN_MOTION_DDOT":0},{"OBJECT_NAME":"FENGYUN 1C DEB","OBJECT_ID":"1999-025AGJ","EPOCH":"2026-04-05T04:54:42.096096","MEAN_MOTION":14.14357156,"ECCENTRICITY":0.00793932,"INCLINATION":99.0458,"RA_OF_ASC_NODE":189.2369,"ARG_OF_PERICENTER":293.7422,"MEAN_ANOMALY":94.7409,"EPHEMERIS_TYPE":0,"CLASSIFICATION_TYPE":"U","NORAD_CAT_ID":30471,"ELEMENT_SET_NO":999,"REV_AT_EPOCH":98046,"BSTAR":0.0016457017,"MEAN_MOTION_DOT":3.199e-5,"MEAN_MOTION_DDOT":0},{"OBJECT_NAME":"FENGYUN 1C DEB","OBJECT_ID":"1999-025AGK","EPOCH":"2026-04-05T06:49:36.398784","MEAN_MOTION":14.56509877,"ECCENTRICITY":0.00376761,"INCLINATION":98.6495,"RA_OF_ASC_NODE":205.35,"ARG_OF_PERICENTER":93.984,"MEAN_ANOMALY":294.4082,"EPHEMERIS_TYPE":0,"CLASSIFICATION_TYPE":"U","NORAD_CAT_ID":30472,"ELEMENT_SET_NO":999,"REV_AT_EPOCH":99692,"BSTAR":0.0028695795,"MEAN_MOTION_DOT":0.0001286,"MEAN_MOTION_DDOT":0},{"OBJECT_NAME":"FENGYUN 1C DEB","OBJECT_ID":"1999-025AGM","EPOCH":"2026-04-05T05:16:30.839232","MEAN_MOTION":14.3949172,"ECCENTRICITY":0.00237992,"INCLINATION":98.9166,"RA_OF_ASC_NODE":183.5887,"ARG_OF_PERICENTER":33.6296,"MEAN_ANOMALY":21.3164,"EPHEMERIS_TYPE":0,"CLASSIFICATION_TYPE":"U","NORAD_CAT_ID":30474,"ELEMENT_SET_NO":999,"REV_AT_EPOCH":99025,"BSTAR":0.0023733901,"MEAN_MOTION_DOT":7.383e-5,"MEAN_MOTION_DDOT":0},{"OBJECT_NAME":"FENGYUN 1C DEB","OBJECT_ID":"1999-025AGN","EPOCH":"2026-04-04T18:33:09.743616","MEAN_MOTION":14.16042657,"ECCENTRICITY":0.00404485,"INCLINATION":98.7759,"RA_OF_ASC_NODE":139.6923,"ARG_OF_PERICENTER":329.8093,"MEAN_ANOMALY":92.4665,"EPHEMERIS_TYPE":0,"CLASSIFICATION_TYPE":"U","NORAD_CAT_ID":30475,"ELEMENT_SET_NO":999,"REV_AT_EPOCH":98551,"BSTAR":0.0010121218,"MEAN_MOTION_DOT":1.97e-5,"MEAN_MOTION_DDOT":0},{"OBJECT_NAME":"FENGYUN 1C DEB","OBJECT_ID":"1999-025AGP","EPOCH":"2026-04-05T02:02:51.313632","MEAN_MOTION":14.21645016,"ECCENTRICITY":0.00434921,"INCLINATION":99.1121,"RA_OF_ASC_NODE":140.9617,"ARG_OF_PERICENTER":337.9597,"MEAN_ANOMALY":49.9969,"EPHEMERIS_TYPE":0,"CLASSIFICATION_TYPE":"U","NORAD_CAT_ID":30476,"ELEMENT_SET_NO":999,"REV_AT_EPOCH":98455,"BSTAR":0.0013970256,"MEAN_MOTION_DOT":3.049e-5,"MEAN_MOTION_DDOT":0},{"OBJECT_NAME":"FENGYUN 1C DEB","OBJECT_ID":"1999-025AGQ","EPOCH":"2026-04-05T04:05:14.038368","MEAN_MOTION":13.24095309,"ECCENTRICITY":0.04260606,"INCLINATION":99.417,"RA_OF_ASC_NODE":172.6841,"ARG_OF_PERICENTER":5.4171,"MEAN_ANOMALY":22.0536,"EPHEMERIS_TYPE":0,"CLASSIFICATION_TYPE":"U","NORAD_CAT_ID":30477,"ELEMENT_SET_NO":999,"REV_AT_EPOCH":92220,"BSTAR":0.0011408166,"MEAN_MOTION_DOT":7.53e-6,"MEAN_MOTION_DDOT":0},{"OBJECT_NAME":"FENGYUN 1C DEB","OBJECT_ID":"1999-025AGS","EPOCH":"2026-04-05T00:00:22.989312","MEAN_MOTION":14.33816218,"ECCENTRICITY":0.01655378,"INCLINATION":98.2197,"RA_OF_ASC_NODE":109.2688,"ARG_OF_PERICENTER":167.0173,"MEAN_ANOMALY":249.6599,"EPHEMERIS_TYPE":0,"CLASSIFICATION_TYPE":"U","NORAD_CAT_ID":30480,"ELEMENT_SET_NO":999,"REV_AT_EPOCH":291,"BSTAR":0.00023737785,"MEAN_MOTION_DOT":7.25e-6,"MEAN_MOTION_DDOT":0},{"OBJECT_NAME":"FENGYUN 1C DEB","OBJECT_ID":"1999-025AGT","EPOCH":"2026-04-05T00:29:37.078656","MEAN_MOTION":14.39558102,"ECCENTRICITY":0.02212424,"INCLINATION":98.3292,"RA_OF_ASC_NODE":114.2776,"ARG_OF_PERICENTER":279.2954,"MEAN_ANOMALY":106.6495,"EPHEMERIS_TYPE":0,"CLASSIFICATION_TYPE":"U","NORAD_CAT_ID":30481,"ELEMENT_SET_NO":999,"REV_AT_EPOCH":105,"BSTAR":0.00054179713,"MEAN_MOTION_DOT":2.201e-5,"MEAN_MOTION_DDOT":0},{"OBJECT_NAME":"FENGYUN 1C DEB","OBJECT_ID":"1999-025AHB","EPOCH":"2026-04-05T07:00:39.560256","MEAN_MOTION":14.15968447,"ECCENTRICITY":0.01384808,"INCLINATION":98.4646,"RA_OF_ASC_NODE":109.6065,"ARG_OF_PERICENTER":297.9627,"MEAN_ANOMALY":78.2095,"EPHEMERIS_TYPE":0,"CLASSIFICATION_TYPE":"U","NORAD_CAT_ID":30489,"ELEMENT_SET_NO":999,"REV_AT_EPOCH":98994,"BSTAR":0.0003235482,"MEAN_MOTION_DOT":6.58e-6,"MEAN_MOTION_DDOT":0},{"OBJECT_NAME":"FENGYUN 1C DEB","OBJECT_ID":"1999-025AHE","EPOCH":"2026-04-05T03:20:43.936224","MEAN_MOTION":14.5567699,"ECCENTRICITY":0.00956551,"INCLINATION":102.3223,"RA_OF_ASC_NODE":170.1853,"ARG_OF_PERICENTER":125.4977,"MEAN_ANOMALY":235.5175,"EPHEMERIS_TYPE":0,"CLASSIFICATION_TYPE":"U","NORAD_CAT_ID":30492,"ELEMENT_SET_NO":999,"REV_AT_EPOCH":98542,"BSTAR":0.0058579665,"MEAN_MOTION_DOT":0.00027257,"MEAN_MOTION_DDOT":0},{"OBJECT_NAME":"FENGYUN 1C DEB","OBJECT_ID":"1999-025AHF","EPOCH":"2026-04-02T19:16:36.264864","MEAN_MOTION":13.93640336,"ECCENTRICITY":0.01799329,"INCLINATION":98.577,"RA_OF_ASC_NODE":280.1327,"ARG_OF_PERICENTER":268.6952,"MEAN_ANOMALY":106.1954,"EPHEMERIS_TYPE":0,"CLASSIFICATION_TYPE":"U","NORAD_CAT_ID":30493,"ELEMENT_SET_NO":999,"REV_AT_EPOCH":96642,"BSTAR":0.0016633754,"MEAN_MOTION_DOT":2.458e-5,"MEAN_MOTION_DDOT":0},{"OBJECT_NAME":"FENGYUN 1C DEB","OBJECT_ID":"1999-025AHG","EPOCH":"2026-04-02T20:06:45.944928","MEAN_MOTION":13.79710721,"ECCENTRICITY":0.01828347,"INCLINATION":99.267,"RA_OF_ASC_NODE":131.0076,"ARG_OF_PERICENTER":287.5216,"MEAN_ANOMALY":70.6031,"EPHEMERIS_TYPE":0,"CLASSIFICATION_TYPE":"U","NORAD_CAT_ID":30494,"ELEMENT_SET_NO":999,"REV_AT_EPOCH":96018,"BSTAR":0.0013526225,"MEAN_MOTION_DOT":1.539e-5,"MEAN_MOTION_DDOT":0},{"OBJECT_NAME":"FENGYUN 1C DEB","OBJECT_ID":"1999-025AHH","EPOCH":"2026-04-05T05:56:18.287232","MEAN_MOTION":12.94801397,"ECCENTRICITY":0.0590069,"INCLINATION":102.2567,"RA_OF_ASC_NODE":202.7166,"ARG_OF_PERICENTER":34.493,"MEAN_ANOMALY":329.3027,"EPHEMERIS_TYPE":0,"CLASSIFICATION_TYPE":"U","NORAD_CAT_ID":30495,"ELEMENT_SET_NO":999,"REV_AT_EPOCH":90142,"BSTAR":0.00080785762,"MEAN_MOTION_DOT":4.47e-6,"MEAN_MOTION_DDOT":0}]
