FENGYUN 1C DEB          
1 30467U 99025AGE 26095.01052425  .00002237  00000+0  10959-2 0  9995
2 30467  98.6643 124.8478 0065106 161.1526 259.2218 14.17723993987821
FENGYUN 1C DEB          
1 30468U 99025AGF 26095.21535295  .00004265  00000+0  19112-2 0  9992
2 30468  98.9113 182.7983 0073372  75.2436 311.9759 14.21616520984229
FENGYUN 1C DEB          
1 30469U 99025AGG 26095.08092823  .00001801  00000+0  11896-2 0  9997
2 30469  98.4733 302.0007 0158332 213.0994 301.1088 13.96881271972881
FENGYUN 1C DEB          
1 30471U 99025AGJ 26095.20465389  .00003199  00000+0  16457-2 0  9995
2 30471  99.0458 189.2369 0079393 293.7422  94.7409 14.14357156980467
FENGYUN 1C DEB          
1 30472U 99025AGK 26095.28444906  .00012860  00000+0  28696-2 0  9999
2 30472  98.6495 205.3500 0037676  93.9840 294.4082 14.56509877996922
FENGYUN 1C DEB          
1 30474U 99025AGM 26095.21980138  .00007383  00000+0  23734-2 0  9998
2 30474  98.9166 183.5887 0023799  33.6296  21.3164 14.39491720990250
FENGYUN 1C DEB          
1 30475U 99025AGN 26094.77302944  .00001970  00000+0  10121-2 0  9994
2 30475  98.7759 139.6923 0040448 329.8093  92.4665 14.16042657985519
FENGYUN 1C DEB          
1 30476U 99025AGP 26095.08531613  .00003049  00000+0  13970-2 0  9991
2 30476  99.1121 140.9617 0043492 337.9597  49.9969 14.21645016984555
FENGYUN 1C DEB          
1 30477U 99025AGQ 26095.17030137  .00000753  00000+0  11408-2 0  9990
2 30477  99.4170 172.6841 0426060   5.4171  22.0536 13.24095309922207
FENGYUN 1C DEB          
1 30480U 99025AGS 26095.00026608  .00000725  00000+0  23738-3 0  9993
2 30480  98.2197 109.2688 0165537 167.0173 249.6599 14.33816218  2912
FENGYUN 1C DEB          
1 30481U 99025AGT 26095.02056804  .00002201  00000+0  54180-3 0  9993
2 30481  98.3292 114.2776 0221242 279.2954 106.6495 14.39558102  1055
FENGYUN 1C DEB          
1 30489U 99025AHB 26095.29212454  .00000658  00000+0  32355-3 0  9999
2 30489  98.4646 109.6065 0138480 297.9627  78.2095 14.15968447989945
FENGYUN 1C DEB          
1 30492U 99025AHE 26095.13939741  .00027257  00000+0  58580-2 0  9992
2 30492 102.3223 170.1853 0095655 125.4977 235.5175 14.55676990985421
FENGYUN 1C DEB          
1 30493U 99025AHF 26092.80319751  .00002458  00000+0  16634-2 0  9997
2 30493  98.5770 280.1327 0179932 268.6952 106.1954 13.93640336966420
FENGYUN 1C DEB          
1 30494U 99025AHG 26092.83803177  .00001539  00000+0  13526-2 0  9997
2 30494  99.2670 131.0076 0182834 287.5216  70.6031 13.79710721960189
FENGYUN 1C DEB          
1 30495U 99025AHH 26095.24743388  .00000447  00000+0  80786-3 0  9993
2 30495 102.2567 202.7166 0590069  34.4930 329.3027 12.94801397901428
